STARLINK-33549          
1 62289U 24237Y   26068.45321631  .00032138  00000+0  11712-2 0  9992
2 62289  43.0014 217.8770 0002339 162.9864 197.1066 15.27608759 71150
TRANSPORTER-12 OBJECT BA
1 62657U 25009BA  26068.70118713  .00011330  00000+0  42733-3 0  9991
2 62657  97.3985 151.1390 0000403 234.6623 125.4579 15.27214003 63739
