[{"OBJECT_NAME":"STARLINK-33549","OBJECT_ID":"2024-237Y","EPOCH":"2026-03-09T10:52:37.889184","MEAN_MOTION":15.27608759,"ECCENTRICITY":0.00023396,"INCLINATION":43.0014,"RA_OF_ASC_NODE":217.877,"ARG_OF_PERICENTER":162.9864,"MEAN_ANOMALY":197.1066,"EPHEMERIS_TYPE":0,"CLASSIFICATION_TYPE":"U","NORAD_CAT_ID":62289,"ELEMENT_SET_NO":999,"REV_AT_EPOCH":7115,"BSTAR":0.0011712367,"MEAN_MOTION_DOT":0.00032138,"MEAN_MOTION_DDOT":0},{"OBJECT_NAME":"TRANSPORTER-12 OBJECT BA","OBJECT_ID":"2025-009BA","EPOCH":"2026-03-09T16:49:42.568896","MEAN_MOTION":15.27214003,"ECCENTRICITY":4.03e-5,"INCLINATION":97.3985,"RA_OF_ASC_NODE":151.139,"ARG_OF_PERICENTER":234.6623,"MEAN_ANOMALY":125.4579,"EPHEMERIS_TYPE":0,"CLASSIFICATION_TYPE":"U","NORAD_CAT_ID":62657,"ELEMENT_SET_NO":999,"REV_AT_EPOCH":6373,"BSTAR":0.00042732654,"MEAN_MOTION_DOT":0.0001133,"MEAN_MOTION_DDOT":0}]
